{
  "type": "FeatureCollection",
  "features": [
    {
      "type": "Feature",
      "properties": {
        "name": "Urbanización Chama",
        "boundsRef": [
          "Av. Higuereta",
          "Av. Benavides",
          "Av. Valle del Sur",
          "Av. Aviación"
        ]
      },
      "geometry": {
        "type": "Polygon",
        "coordinates": [
          [
            [-77.0006087, -12.1282535],
            [-76.9983339, -12.1221816],
            [-76.9957958, -12.1221094],
            [-76.9943914, -12.1225633],
            [-76.9938344, -12.1212243],
            [-76.9929523, -12.1215648],
            [-76.9904454, -12.1241292],
            [-76.9918149, -12.1273518],
            [-76.9918265, -12.1281008],
            [-77.0005195, -12.1287475],
            [-77.0006087, -12.1282535]
          ]
        ]
      }
    }
  ]
}
